{
  "type": "FeatureCollection",
  "features": [
    {
      "type": "Feature",
      "properties": {
        "norad_id": 35616,
        "name": "IRIDIUM 33 DEB",
        "group": "iridium-33-debris",
        "lat": 38.85448683404673,
        "lon": 160.13604753666752,
        "alt_km": 612.6730700297176,
        "timestamp": "2025-12-18T14:52:08.409979+00:00",
        "meta_object_name": "IRIDIUM 33 DEB",
        "meta_object_id": "1997-051QN",
        "meta_epoch": "2025-12-18T06:07:57.203616",
        "meta_mean_motion": 14.81951601,
        "meta_eccentricity": 0.00109465,
        "meta_inclination": 86.3538,
        "meta_ra_of_asc_node": 343.2468,
        "meta_arg_of_pericenter": 144.5331,
        "meta_mean_anomaly": 215.6621,
        "meta_ephemeris_type": 0,
        "meta_classification_type": "U",
        "meta_norad_cat_id": 35616,
        "meta_element_set_no": 999,
        "meta_rev_at_epoch": 87656,
        "meta_bstar": 0.0015111725,
        "meta_mean_motion_dot": 0.00012018,
        "meta_mean_motion_ddot": 0,
        "tle_line1": "1 35616U 97051QN  25352.25552319  .00012018  00000+0  15112-2 0  9995",
        "tle_line2": "2 35616  86.3538 343.2468 0010946 144.5331 215.6621 14.81951601876568"
      },
      "geometry": {
        "type": "Point",
        "coordinates": [
          160.13604753666752,
          38.85448683404673
        ]
      }
    },
    {
      "type": "Feature",
      "properties": {
        "norad_id": 35618,
        "name": "IRIDIUM 33 DEB",
        "group": "iridium-33-debris",
        "lat": 1.497440961074578,
        "lon": -8.968361064626468,
        "alt_km": 700.4313591535174,
        "timestamp": "2025-12-18T14:52:08.409989+00:00",
        "meta_object_name": "IRIDIUM 33 DEB",
        "meta_object_id": "1997-051QQ",
        "meta_epoch": "2025-12-13T19:06:39.662496",
        "meta_mean_motion": 14.52305973,
        "meta_eccentricity": 0.00288889,
        "meta_inclination": 86.3427,
        "meta_ra_of_asc_node": 353.0427,
        "meta_arg_of_pericenter": 17.6332,
        "meta_mean_anomaly": 342.5869,
        "meta_ephemeris_type": 0,
        "meta_classification_type": "U",
        "meta_norad_cat_id": 35618,
        "meta_element_set_no": 999,
        "meta_rev_at_epoch": 65409,
        "meta_bstar": 0.0005678553,
        "meta_mean_motion_dot": 2.341e-05,
        "meta_mean_motion_ddot": 0,
        "tle_line1": "1 35618U 97051QQ  25347.79629239  .00002341  00000+0  56786-3 0  9997",
        "tle_line2": "2 35618  86.3427 353.0427 0028888  17.6332 342.5869 14.52305973654095"
      },
      "geometry": {
        "type": "Point",
        "coordinates": [
          -8.968361064626468,
          1.497440961074578
        ]
      }
    },
    {
      "type": "Feature",
      "properties": {
        "norad_id": 35620,
        "name": "IRIDIUM 33 DEB",
        "group": "iridium-33-debris",
        "lat": 45.219830797354504,
        "lon": -141.37883361244707,
        "alt_km": 857.3156008424967,
        "timestamp": "2025-12-18T14:52:08.410000+00:00",
        "meta_object_name": "IRIDIUM 33 DEB",
        "meta_object_id": "1997-051QS",
        "meta_epoch": "2025-12-18T01:17:45.492864",
        "meta_mean_motion": 14.38221868,
        "meta_eccentricity": 0.01397902,
        "meta_inclination": 86.3894,
        "meta_ra_of_asc_node": 215.2116,
        "meta_arg_of_pericenter": 241.3085,
        "meta_mean_anomaly": 117.4003,
        "meta_ephemeris_type": 0,
        "meta_classification_type": "U",
        "meta_norad_cat_id": 35620,
        "meta_element_set_no": 999,
        "meta_rev_at_epoch": 60042,
        "meta_bstar": 0.0036610812,
        "meta_mean_motion_dot": 0.00012487,
        "meta_mean_motion_ddot": 0,
        "tle_line1": "1 35620U 97051QS  25352.05399876  .00012487  00000+0  36611-2 0  9992",
        "tle_line2": "2 35620  86.3894 215.2116 0139790 241.3085 117.4003 14.38221868600427"
      },
      "geometry": {
        "type": "Point",
        "coordinates": [
          -141.37883361244707,
          45.219830797354504
        ]
      }
    },
    {
      "type": "Feature",
      "properties": {
        "norad_id": 35622,
        "name": "IRIDIUM 33 DEB",
        "group": "iridium-33-debris",
        "lat": 73.47834357491506,
        "lon": 67.76691152315547,
        "alt_km": 546.4887982612618,
        "timestamp": "2025-12-18T14:52:08.410010+00:00",
        "meta_object_name": "IRIDIUM 33 DEB",
        "meta_object_id": "1997-051QU",
        "meta_epoch": "2025-12-14T12:14:43.972224",
        "meta_mean_motion": 15.04969242,
        "meta_eccentricity": 0.00054886,
        "meta_inclination": 86.2028,
        "meta_ra_of_asc_node": 262.7313,
        "meta_arg_of_pericenter": 323.1514,
        "meta_mean_anomaly": 209.8665,
        "meta_ephemeris_type": 0,
        "meta_classification_type": "U",
        "meta_norad_cat_id": 35622,
        "meta_element_set_no": 999,
        "meta_rev_at_epoch": 87386,
        "meta_bstar": 0.0048535985,
        "meta_mean_motion_dot": 0.00069411,
        "meta_mean_motion_ddot": 0,
        "tle_line1": "1 35622U 97051QU  25348.51023116  .00069411  00000+0  48536-2 0  9999",
        "tle_line2": "2 35622  86.2028 262.7313 0005488 323.1514 209.8665 15.04969242873864"
      },
      "geometry": {
        "type": "Point",
        "coordinates": [
          67.76691152315547,
          73.47834357491506
        ]
      }
    },
    {
      "type": "Feature",
      "properties": {
        "norad_id": 35628,
        "name": "IRIDIUM 33 DEB",
        "group": "iridium-33-debris",
        "lat": -42.39331495983697,
        "lon": -170.2121023718182,
        "alt_km": 676.2742981064721,
        "timestamp": "2025-12-18T14:52:08.410020+00:00",
        "meta_object_name": "IRIDIUM 33 DEB",
        "meta_object_id": "1997-051RA",
        "meta_epoch": "2025-12-18T07:18:45.213408",
        "meta_mean_motion": 14.6766102,
        "meta_eccentricity": 0.00098417,
        "meta_inclination": 86.3567,
        "meta_ra_of_asc_node": 6.5937,
        "meta_arg_of_pericenter": 321.9777,
        "meta_mean_anomaly": 38.0742,
        "meta_ephemeris_type": 0,
        "meta_classification_type": "U",
        "meta_norad_cat_id": 35628,
        "meta_element_set_no": 999,
        "meta_rev_at_epoch": 86528,
        "meta_bstar": 0.0011340632,
        "meta_mean_motion_dot": 6.475e-05,
        "meta_mean_motion_ddot": 0,
        "tle_line1": "1 35628U 97051RA  25352.30468997  .00006475  00000+0  11341-2 0  9992",
        "tle_line2": "2 35628  86.3567   6.5937 0009841 321.9777  38.0742 14.67661020865285"
      },
      "geometry": {
        "type": "Point",
        "coordinates": [
          -170.2121023718182,
          -42.39331495983697
        ]
      }
    },
    {
      "type": "Feature",
      "properties": {
        "norad_id": 35631,
        "name": "IRIDIUM 33 DEB",
        "group": "iridium-33-debris",
        "lat": 49.003080887641666,
        "lon": 22.636217873736364,
        "alt_km": 721.4025850951057,
        "timestamp": "2025-12-18T14:52:08.410031+00:00",
        "meta_object_name": "IRIDIUM 33 DEB",
        "meta_object_id": "1997-051RD",
        "meta_epoch": "2025-12-17T02:23:33.513216",
        "meta_mean_motion": 14.47323174,
        "meta_eccentricity": 0.00191499,
        "meta_inclination": 86.3669,
        "meta_ra_of_asc_node": 19.0985,
        "meta_arg_of_pericenter": 104.9158,
        "meta_mean_anomaly": 310.5558,
        "meta_ephemeris_type": 0,
        "meta_classification_type": "U",
        "meta_norad_cat_id": 35631,
        "meta_element_set_no": 999,
        "meta_rev_at_epoch": 87260,
        "meta_bstar": 0.00028519596,
        "meta_mean_motion_dot": 1.066e-05,
        "meta_mean_motion_ddot": 0,
        "tle_line1": "1 35631U 97051RD  25351.09969344  .00001066  00000+0  28520-3 0  9992",
        "tle_line2": "2 35631  86.3669  19.0985 0019149 104.9158 310.5558 14.47323174872608"
      },
      "geometry": {
        "type": "Point",
        "coordinates": [
          22.636217873736364,
          49.003080887641666
        ]
      }
    },
    {
      "type": "Feature",
      "properties": {
        "norad_id": 35680,
        "name": "IRIDIUM 33 DEB",
        "group": "iridium-33-debris",
        "lat": -1.8029175639029107,
        "lon": -160.9575013467894,
        "alt_km": 801.1040417689519,
        "timestamp": "2025-12-18T14:52:08.410041+00:00",
        "meta_object_name": "IRIDIUM 33 DEB",
        "meta_object_id": "1997-051RJ",
        "meta_epoch": "2025-12-17T20:16:19.922592",
        "meta_mean_motion": 14.21000805,
        "meta_eccentricity": 0.01505036,
        "meta_inclination": 86.1025,
        "meta_ra_of_asc_node": 19.2625,
        "meta_arg_of_pericenter": 262.1515,
        "meta_mean_anomaly": 279.7609,
        "meta_ephemeris_type": 0,
        "meta_classification_type": "U",
        "meta_norad_cat_id": 35680,
        "meta_element_set_no": 999,
        "meta_rev_at_epoch": 60773,
        "meta_bstar": 0.0028027984,
        "meta_mean_motion_dot": 6.829e-05,
        "meta_mean_motion_ddot": 0,
        "tle_line1": "1 35680U 97051RJ  25351.84467503  .00006829  00000+0  28028-2 0  9993",
        "tle_line2": "2 35680  86.1025  19.2625 0150503 262.1515 279.7609 14.21000805607731"
      },
      "geometry": {
        "type": "Point",
        "coordinates": [
          -160.9575013467894,
          -1.8029175639029107
        ]
      }
    }
  ]
}